[Satellite]
VERSION=1.1
NAME=NOAA 14 [-]
NICKNAME=NOAA 14 [-]
TLE1=1 23455U 94089A   18020.89338976 -.00000013  00000-0  15542-4 0  9999
TLE2=2 23455  98.6641  94.5701 0008444 251.9718 108.0536 14.14109952189360
